SIRION PATHFINDER-2     
1 43759U 18099B   26133.09552040  .00003308  00000+0  18446-3 0  9994
2 43759  97.4282 182.9909 0010238  67.3448 292.8866 15.14216957407313
CORVUS BC4              
1 43767U 18099K   26133.84890828  .00002733  00000+0  16177-3 0  9995
2 43767  97.4097 177.8372 0009985 116.0020 244.2240 15.12204138407210
M2 PATHFINDER           
1 45727U 20037E   26133.46436860  .00001614  00000+0  11972-3 0  9993
2 45727  97.8165 324.3080 0010079 270.3149  89.6921 15.04520999320279
NETSAT-4                
1 46504U 20068U   26133.50000936  .00011537  00000+0  26646-3 0  9996
2 46504  97.8615 138.9870 0007646  89.0343 271.1779 15.42681553310427
NETSAT-3                
1 46505U 20068V   26133.54399787  .00012100  00000+0  29095-3 0  9994
2 46505  97.8664 137.2966 0007521 101.5501 258.6589 15.41453660310343
NETSAT-1                
1 46506U 20068W   26133.50210330  .00008185  00000+0  25313-3 0  9994
2 46506  97.8750 131.9823 0006790 120.8289 239.3621 15.33771865309989
NETSAT-2                
1 46507U 20068X   26133.51925066  .00014275  00000+0  30982-3 0  9990
2 46507  97.8631 138.7857 0006204 109.9337 250.2579 15.44488253310380
GREENCUBE (IO-117)      
1 53109U 22080E   26133.47737909 -.00000003  00000+0  00000+0 0  9993
2 53109  70.1436 310.3212 0008811 297.6025  62.3740  6.42583324 89839
SITRO-AIS 5 (KATYS)     
1 57176U 23091L   26133.84308678  .00007587  00000+0  27470-3 0  9999
2 57176  97.5083 197.4346 0010809 216.4226 143.6279 15.28637187159099
SITRO-AIS 6 (CHIRKIN)   
1 57192U 23091AC  26133.81008308  .00003718  00000+0  15062-3 0  9997
2 57192  97.5090 196.6985 0010947 220.1831 139.8598 15.25256289159045
SITRO-AIS 8 (ANOKHIN)   
1 57193U 23091AD  26133.85311630  .00008658  00000+0  28970-3 0  9997
2 57193  97.5079 198.8981 0010115 211.5083 148.5553 15.31171890159198
SITRO-AIS 7 (FARTUSHNIY)
1 57194U 23091AE  26133.87200633  .00003637  00000+0  14868-3 0  9993
2 57194  97.5087 196.6030 0010770 221.1008 138.9419 15.24962606159043
SITRO-AIS 10 (BURDAEV)  
1 57199U 23091AK  26133.82953197  .00012668  00000+0  34883-3 0  9996
2 57199  97.5101 203.5851 0007134 183.2151 176.9049 15.37270244159484
SITRO-AIS 9 (SHCHUKIN)  
1 57201U 23091AM  26133.84548512  .00012917  00000+0  36081-3 0  9992
2 57201  97.5099 203.3573 0007331 183.9503 176.1684 15.36818807159478
SITRO-AIS 12 (SMIRENNIY)
1 57204U 23091AQ  26133.84252046  .00012851  00000+0  35574-3 0  9992
2 57204  97.5111 203.8002 0007139 177.8865 182.2410 15.37103409159490
SITRO-AIS 11 (SHEFFER)  
1 57208U 23091AU  26133.86505722  .00013501  00000+0  36890-3 0  9995
2 57208  97.5110 204.0489 0007075 177.5689 182.5590 15.37495376159517
SITRO-AIS 25            
1 59066U 24039R   26133.86901459  .00002829  00000+0  22084-3 0  9990
2 59066  95.3921 211.5136 0147442  88.2071 273.6035 14.93265411119603
SITRO-AIS 26            
1 59067U 24039S   26133.86576956  .00002744  00000+0  21519-3 0  9999
2 59067  95.3922 211.4159 0147772  88.7425 273.0724 14.93068343119595
SITRO-AIS 27            
1 59068U 24039T   26133.84555468  .00003007  00000+0  23349-3 0  9999
2 59068  95.3925 211.6578 0146956  87.5101 274.2939 14.93480594119617
SITRO-AIS 28            
1 59071U 24039U   26133.89078950  .00003369  00000+0  26120-3 0  9995
2 59071  95.3925 211.7343 0146802  87.2377 274.5640 14.93514476119624
GRBBETA                 
1 60237U 24128C   26132.97496547  .00002703  00000+0  19346-3 0  9997
2 60237  61.9907 339.7812 0045302 127.3925 233.1305 15.06341838100960
OOV-CUBE (TUBSAT-30)    
1 60240U 24128F   26133.12030143  .00001450  00000+0  12162-3 0  9992
2 60240  61.9950 347.8334 0048909 126.1268 234.4365 15.02589480100844
ROBUSTA-3A (MEDITERRAN*)
1 60243U 24128J   26133.73200933  .00005000  00000+0  30284-3 0  9998
2 60243  61.9869 330.0390 0045922 121.4004 239.1595 15.11114203101216
LASARSAT                
1 62391U 24247Q   26133.32516525  .00019182  00000+0  41582-3 0  9997
2 62391  44.9736  97.7722 0004764 121.9276 238.2076 15.44166921 77921
CROCUBE                 
1 62394U 24247T   26133.16817152  .00021595  00000+0  44259-3 0  9997
2 62394  44.9712  96.5072 0004393 123.9905 236.1402 15.45750204 77926
FORESAIL-1 PRIME        
1 66778U 25276DS  26133.79690399  .00003018  00000+0  15012-3 0  9996
2 66778  97.4210 207.7041 0001870 184.8187 175.3030 15.18372899 25181
KNACKSAT-2              
1 67683U 98067XZ  26133.14399934  .00027142  00000+0  37475-3 0  9991
2 67683  51.6273 110.3103 0012516  69.1546 291.0785 15.56883677 14813
